{
 "generated_at": "2026-07-15T07:14:44Z",
 "sources": [
  {
   "name": "CelesTrak",
   "url": "https://celestrak.org/NORAD/elements/",
   "license": "frei verfügbar; Attribution. Ursprünglich USSPACECOM/Space-Track."
  },
  {
   "name": "GCAT (J. McDowell, planet4589.org)",
   "url": "https://planet4589.org/space/gcat/",
   "license": "CC-BY 4.0"
  }
 ],
 "satellites": [
  {
   "norad": 43010,
   "name": "FENGYUN 3D",
   "intl": "2017-072A",
   "group": "weather",
   "gcat": {
    "class": "C",
    "category": "MET",
    "owner": "NSMC",
    "state": "CN"
   },
   "omm": {
    "OBJECT_NAME": "FENGYUN 3D",
    "OBJECT_ID": "2017-072A",
    "EPOCH": "2026-07-14T21:56:41.745984",
    "MEAN_MOTION": 14.19744763,
    "ECCENTRICITY": 0.00015261,
    "INCLINATION": 99.0137,
    "RA_OF_ASC_NODE": 170.8401,
    "ARG_OF_PERICENTER": 14.5399,
    "MEAN_ANOMALY": 345.582,
    "EPHEMERIS_TYPE": 0,
    "CLASSIFICATION_TYPE": "U",
    "NORAD_CAT_ID": 43010,
    "ELEMENT_SET_NO": 999,
    "REV_AT_EPOCH": 44892,
    "BSTAR": 0.000066831957,
    "MEAN_MOTION_DOT": 9.5e-7,
    "MEAN_MOTION_DDOT": 0
   }
  },
  {
   "norad": 49008,
   "name": "FENGYUN 3E",
   "intl": "2021-062A",
   "group": "weather",
   "gcat": {
    "class": "C",
    "category": "MET",
    "owner": "NSMC",
    "state": "CN"
   },
   "omm": {
    "OBJECT_NAME": "FENGYUN 3E",
    "OBJECT_ID": "2021-062A",
    "EPOCH": "2026-07-14T23:10:31.653696",
    "MEAN_MOTION": 14.19906111,
    "ECCENTRICITY": 0.00022572,
    "INCLINATION": 98.7495,
    "RA_OF_ASC_NODE": 199.0642,
    "ARG_OF_PERICENTER": 39.6218,
    "MEAN_ANOMALY": 320.5123,
    "EPHEMERIS_TYPE": 0,
    "CLASSIFICATION_TYPE": "U",
    "NORAD_CAT_ID": 49008,
    "ELEMENT_SET_NO": 999,
    "REV_AT_EPOCH": 26052,
    "BSTAR": -0.000070119042,
    "MEAN_MOTION_DOT": -0.00000193,
    "MEAN_MOTION_DDOT": 0
   }
  },
  {
   "norad": 57490,
   "name": "FENGYUN 3F",
   "intl": "2023-111A",
   "group": "weather",
   "gcat": {
    "class": "C",
    "category": "MET",
    "owner": "NSMC",
    "state": "CN"
   },
   "omm": {
    "OBJECT_NAME": "FENGYUN 3F",
    "OBJECT_ID": "2023-111A",
    "EPOCH": "2026-07-14T21:04:56.161920",
    "MEAN_MOTION": 14.1994334,
    "ECCENTRICITY": 0.00012851,
    "INCLINATION": 98.6825,
    "RA_OF_ASC_NODE": 265.3696,
    "ARG_OF_PERICENTER": 76.27,
    "MEAN_ANOMALY": 283.8619,
    "EPHEMERIS_TYPE": 0,
    "CLASSIFICATION_TYPE": "U",
    "NORAD_CAT_ID": 57490,
    "ELEMENT_SET_NO": 999,
    "REV_AT_EPOCH": 15279,
    "BSTAR": 0.000023112292,
    "MEAN_MOTION_DOT": 6e-8,
    "MEAN_MOTION_DDOT": 0
   }
  },
  {
   "norad": 56232,
   "name": "FENGYUN 3G",
   "intl": "2023-055A",
   "group": "weather",
   "gcat": {
    "class": "C",
    "category": "MET",
    "owner": "NSMC",
    "state": "CN"
   },
   "omm": {
    "OBJECT_NAME": "FENGYUN 3G",
    "OBJECT_ID": "2023-055A",
    "EPOCH": "2026-07-14T21:33:33.640128",
    "MEAN_MOTION": 15.53778159,
    "ECCENTRICITY": 0.00070551,
    "INCLINATION": 49.9902,
    "RA_OF_ASC_NODE": 203.107,
    "ARG_OF_PERICENTER": 54.5051,
    "MEAN_ANOMALY": 305.6573,
    "EPHEMERIS_TYPE": 0,
    "CLASSIFICATION_TYPE": "U",
    "NORAD_CAT_ID": 56232,
    "ELEMENT_SET_NO": 999,
    "REV_AT_EPOCH": 18431,
    "BSTAR": 0.00023297151,
    "MEAN_MOTION_DOT": 0.00014815,
    "MEAN_MOTION_DDOT": 0
   }
  },
  {
   "norad": 65815,
   "name": "FENGYUN 3H",
   "intl": "2025-219A",
   "group": "weather",
   "gcat": {
    "class": "C",
    "category": "MET",
    "owner": "NSMC",
    "state": "CN"
   },
   "omm": {
    "OBJECT_NAME": "FENGYUN 3H",
    "OBJECT_ID": "2025-219A",
    "EPOCH": "2026-07-14T19:18:46.256256",
    "MEAN_MOTION": 14.19924781,
    "ECCENTRICITY": 0.0001158,
    "INCLINATION": 98.6771,
    "RA_OF_ASC_NODE": 136.0376,
    "ARG_OF_PERICENTER": 62.6327,
    "MEAN_ANOMALY": 297.4968,
    "EPHEMERIS_TYPE": 0,
    "CLASSIFICATION_TYPE": "U",
    "NORAD_CAT_ID": 65815,
    "ELEMENT_SET_NO": 999,
    "REV_AT_EPOCH": 4130,
    "BSTAR": 0.000023672328,
    "MEAN_MOTION_DOT": 7e-8,
    "MEAN_MOTION_DDOT": 0
   }
  },
  {
   "norad": 41882,
   "name": "FENGYUN 4A",
   "intl": "2016-077A",
   "group": "weather",
   "gcat": {
    "class": "C",
    "category": "MET",
    "owner": "NSMC",
    "state": "CN"
   },
   "omm": {
    "OBJECT_NAME": "FENGYUN 4A",
    "OBJECT_ID": "2016-077A",
    "EPOCH": "2026-07-14T19:08:19.752576",
    "MEAN_MOTION": 1.00268349,
    "ECCENTRICITY": 0.00085062,
    "INCLINATION": 2.3898,
    "RA_OF_ASC_NODE": 79.9598,
    "ARG_OF_PERICENTER": 159.5927,
    "MEAN_ANOMALY": 103.934,
    "EPHEMERIS_TYPE": 0,
    "CLASSIFICATION_TYPE": "U",
    "NORAD_CAT_ID": 41882,
    "ELEMENT_SET_NO": 999,
    "REV_AT_EPOCH": 3520,
    "BSTAR": 0,
    "MEAN_MOTION_DOT": -0.00000367,
    "MEAN_MOTION_DDOT": 0
   }
  },
  {
   "norad": 42920,
   "name": "FORMOSAT-5",
   "intl": "2017-049A",
   "group": "resource",
   "gcat": {
    "class": "C",
    "category": "IMG/SCI",
    "owner": "NSPO",
    "state": "TW"
   },
   "omm": {
    "OBJECT_NAME": "FORMOSAT-5",
    "OBJECT_ID": "2017-049A",
    "EPOCH": "2026-07-14T21:56:07.274112",
    "MEAN_MOTION": 14.50907751,
    "ECCENTRICITY": 0.0011363,
    "INCLINATION": 98.2246,
    "RA_OF_ASC_NODE": 270.6067,
    "ARG_OF_PERICENTER": 4.7028,
    "MEAN_ANOMALY": 355.4272,
    "EPHEMERIS_TYPE": 0,
    "CLASSIFICATION_TYPE": "U",
    "NORAD_CAT_ID": 42920,
    "ELEMENT_SET_NO": 999,
    "REV_AT_EPOCH": 47069,
    "BSTAR": 0.000020532973,
    "MEAN_MOTION_DOT": 3.7e-7,
    "MEAN_MOTION_DDOT": 0
   }
  },
  {
   "norad": 39150,
   "name": "GAOFEN-1",
   "intl": "2013-018A",
   "group": "resource",
   "gcat": {
    "class": "C",
    "category": "IMG",
    "owner": "CNSAS",
    "state": "CN"
   },
   "omm": {
    "OBJECT_NAME": "GAOFEN-1",
    "OBJECT_ID": "2013-018A",
    "EPOCH": "2026-07-14T23:35:58.529184",
    "MEAN_MOTION": 14.76519155,
    "ECCENTRICITY": 0.0017021,
    "INCLINATION": 97.9093,
    "RA_OF_ASC_NODE": 267.4844,
    "ARG_OF_PERICENTER": 171.7452,
    "MEAN_ANOMALY": 188.4042,
    "EPHEMERIS_TYPE": 0,
    "CLASSIFICATION_TYPE": "U",
    "NORAD_CAT_ID": 39150,
    "ELEMENT_SET_NO": 999,
    "REV_AT_EPOCH": 71234,
    "BSTAR": 0.000064604686,
    "MEAN_MOTION_DOT": 0.000004,
    "MEAN_MOTION_DDOT": 0
   }
  },
  {
   "norad": 43259,
   "name": "GAOFEN-1 02",
   "intl": "2018-031A",
   "group": "resource",
   "gcat": {
    "class": "C",
    "category": "IMG",
    "owner": "CNSAS",
    "state": "CN"
   },
   "omm": {
    "OBJECT_NAME": "GAOFEN-1 02",
    "OBJECT_ID": "2018-031A",
    "EPOCH": "2026-07-14T22:46:36.664608",
    "MEAN_MOTION": 14.7647263,
    "ECCENTRICITY": 0.00015093,
    "INCLINATION": 98.0521,
    "RA_OF_ASC_NODE": 258.3962,
    "ARG_OF_PERICENTER": 289.0035,
    "MEAN_ANOMALY": 71.1011,
    "EPHEMERIS_TYPE": 0,
    "CLASSIFICATION_TYPE": "U",
    "NORAD_CAT_ID": 43259,
    "ELEMENT_SET_NO": 999,
    "REV_AT_EPOCH": 44679,
    "BSTAR": 0.000098579701,
    "MEAN_MOTION_DOT": 0.00000635,
    "MEAN_MOTION_DDOT": 0
   }
  },
  {
   "norad": 43260,
   "name": "GAOFEN-1 03",
   "intl": "2018-031B",
   "group": "resource",
   "gcat": {
    "class": "C",
    "category": "IMG",
    "owner": "CNSAS",
    "state": "CN"
   },
   "omm": {
    "OBJECT_NAME": "GAOFEN-1 03",
    "OBJECT_ID": "2018-031B",
    "EPOCH": "2026-07-14T23:52:39.607968",
    "MEAN_MOTION": 14.76462386,
    "ECCENTRICITY": 0.00024279,
    "INCLINATION": 98.0503,
    "RA_OF_ASC_NODE": 258.2975,
    "ARG_OF_PERICENTER": 16.2755,
    "MEAN_ANOMALY": 343.8532,
    "EPHEMERIS_TYPE": 0,
    "CLASSIFICATION_TYPE": "U",
    "NORAD_CAT_ID": 43260,
    "ELEMENT_SET_NO": 999,
    "REV_AT_EPOCH": 44679,
    "BSTAR": 0.000057341731,
    "MEAN_MOTION_DOT": 0.00000347,
    "MEAN_MOTION_DDOT": 0
   }
  }
 ]
}
